GLOBALSTAR M057         
1 25943U 99058A   25129.84065387 -.00000066  00000+0  24347-3 0  9999
2 25943  51.9970  97.0285 0002683 305.1446  54.9152 12.24819135162235
GLOBALSTAR M059         
1 25944U 99058B   25129.96384800 -.00000082  00000+0  55247-4 0  9999
2 25944  52.0030 310.5799 0000669 145.6662  13.7161 11.99979701158209
GLOBALSTAR M056         
1 25945U 99058C   25129.93956258 -.00000084  00000+0  36602-4 0  9995
2 25945  51.9977 313.5862 0001886 104.5031   9.8467 12.04778655158069
GLOBALSTAR M031         
1 25946U 99058D   25129.54213426  .00000033  00000+0  12574-2 0  9999
2 25946  51.9950 209.3174 0001640 113.7919 350.5666 12.16035254159842
GLOBALSTAR M039         
1 25961U 99062A   25130.07926434 -.00000045  00000+0  32701-3 0  9990
2 25961  51.9871  24.7849 0001959 268.0537  92.0106 12.62325762175439
GLOBALSTAR M034         
1 25962U 99062B   25130.34143420 -.00000066  00000+0  23006-3 0  9998
2 25962  51.9848 109.7621 0014360 329.8189 179.0830 11.79448012133913
GLOBALSTAR M029         
1 25963U 99062C   25129.71815589 -.00000054  00000+0  40520-3 0  9997
2 25963  51.9788 199.3147 0002301  50.4777  98.5460 11.99896147164508
GLOBALSTAR M061         
1 25964U 99062D   25130.18029542 -.00000061  00000+0  30777-3 0  9998
2 25964  51.9801 293.7147 0005398 247.5374 283.4941 11.76774853116998
